[{"OBJECT_NAME":"ONEWEB-0212","OBJECT_ID":"2021-045AA","EPOCH":"2025-07-27T19:48:34.902144","MEAN_MOTION":13.15549342,"ECCENTRICITY":0.0001868,"INCLINATION":87.9075,"RA_OF_ASC_NODE":323.8597,"ARG_OF_PERICENTER":98.222,"MEAN_ANOMALY":261.9122,"EPHEMERIS_TYPE":0,"CLASSIFICATION_TYPE":"U","NORAD_CAT_ID":48791,"ELEMENT_SET_NO":999,"REV_AT_EPOCH":20292,"BSTAR":1.1132e-5,"MEAN_MOTION_DOT":1.7e-7,"MEAN_MOTION_DDOT":0},{"OBJECT_NAME":"ONEWEB-0227","OBJECT_ID":"2021-045AB","EPOCH":"2025-07-27T19:47:25.025280","MEAN_MOTION":13.15547814,"ECCENTRICITY":0.0001976,"INCLINATION":87.9078,"RA_OF_ASC_NODE":323.8795,"ARG_OF_PERICENTER":94.9989,"MEAN_ANOMALY":265.1367,"EPHEMERIS_TYPE":0,"CLASSIFICATION_TYPE":"U","NORAD_CAT_ID":48792,"ELEMENT_SET_NO":999,"REV_AT_EPOCH":20286,"BSTAR":4.4877e-5,"MEAN_MOTION_DOT":3.0e-7,"MEAN_MOTION_DDOT":0},{"OBJECT_NAME":"ONEWEB-0226","OBJECT_ID":"2021-045AC","EPOCH":"2025-07-27T08:41:09.945024","MEAN_MOTION":13.15548895,"ECCENTRICITY":0.0002298,"INCLINATION":87.9082,"RA_OF_ASC_NODE":323.9753,"ARG_OF_PERICENTER":96.6781,"MEAN_ANOMALY":263.4611,"EPHEMERIS_TYPE":0,"CLASSIFICATION_TYPE":"U","NORAD_CAT_ID":48793,"ELEMENT_SET_NO":999,"REV_AT_EPOCH":20164,"BSTAR":-0.00015594,"MEAN_MOTION_DOT":-4.6e-7,"MEAN_MOTION_DDOT":0},{"OBJECT_NAME":"ONEWEB-0224","OBJECT_ID":"2021-045AD","EPOCH":"2025-07-27T20:35:21.089472","MEAN_MOTION":13.15547109,"ECCENTRICITY":0.0001671,"INCLINATION":87.9081,"RA_OF_ASC_NODE":323.9144,"ARG_OF_PERICENTER":68.0254,"MEAN_ANOMALY":292.1054,"EPHEMERIS_TYPE":0,"CLASSIFICATION_TYPE":"U","NORAD_CAT_ID":48794,"ELEMENT_SET_NO":999,"REV_AT_EPOCH":20275,"BSTAR":0.00023004,"MEAN_MOTION_DOT":9.9e-7,"MEAN_MOTION_DDOT":0},{"OBJECT_NAME":"ONEWEB-0233","OBJECT_ID":"2021-045AE","EPOCH":"2025-07-27T20:41:58.800768","MEAN_MOTION":13.15549717,"ECCENTRICITY":0.0002094,"INCLINATION":87.9087,"RA_OF_ASC_NODE":323.9215,"ARG_OF_PERICENTER":89.6491,"MEAN_ANOMALY":270.4879,"EPHEMERIS_TYPE":0,"CLASSIFICATION_TYPE":"U","NORAD_CAT_ID":48795,"ELEMENT_SET_NO":999,"REV_AT_EPOCH":20276,"BSTAR":5.437e-5,"MEAN_MOTION_DOT":3.3e-7,"MEAN_MOTION_DDOT":0},{"OBJECT_NAME":"ONEWEB-0190","OBJECT_ID":"2021-045AF","EPOCH":"2025-07-27T14:55:21.968256","MEAN_MOTION":13.15547566,"ECCENTRICITY":0.0002569,"INCLINATION":87.9088,"RA_OF_ASC_NODE":323.934,"ARG_OF_PERICENTER":86.1626,"MEAN_ANOMALY":273.9798,"EPHEMERIS_TYPE":0,"CLASSIFICATION_TYPE":"U","NORAD_CAT_ID":48796,"ELEMENT_SET_NO":999,"REV_AT_EPOCH":20169,"BSTAR":0.00044035,"MEAN_MOTION_DOT":1.79e-6,"MEAN_MOTION_DDOT":0},{"OBJECT_NAME":"ONEWEB-0236","OBJECT_ID":"2021-045AG","EPOCH":"2025-07-27T13:30:55.650240","MEAN_MOTION":13.15547458,"ECCENTRICITY":0.0001767,"INCLINATION":87.9093,"RA_OF_ASC_NODE":323.9547,"ARG_OF_PERICENTER":97.4687,"MEAN_ANOMALY":262.6645,"EPHEMERIS_TYPE":0,"CLASSIFICATION_TYPE":"U","NORAD_CAT_ID":48797,"ELEMENT_SET_NO":999,"REV_AT_EPOCH":20269,"BSTAR":-9.4888e-6,"MEAN_MOTION_DOT":9.0e-8,"MEAN_MOTION_DDOT":0},{"OBJECT_NAME":"ONEWEB-0248","OBJECT_ID":"2021-045AH","EPOCH":"2025-07-27T13:49:11.760384","MEAN_MOTION":13.15550244,"ECCENTRICITY":0.0002086,"INCLINATION":87.9082,"RA_OF_ASC_NODE":323.9072,"ARG_OF_PERICENTER":79.7151,"MEAN_ANOMALY":280.4214,"EPHEMERIS_TYPE":0,"CLASSIFICATION_TYPE":"U","NORAD_CAT_ID":48798,"ELEMENT_SET_NO":999,"REV_AT_EPOCH":20173,"BSTAR":-0.00020215,"MEAN_MOTION_DOT":-6.3e-7,"MEAN_MOTION_DDOT":0},{"OBJECT_NAME":"ONEWEB-0225","OBJECT_ID":"2021-045AJ","EPOCH":"2025-07-27T19:49:40.725120","MEAN_MOTION":13.15546264,"ECCENTRICITY":0.0002405,"INCLINATION":87.9086,"RA_OF_ASC_NODE":323.8889,"ARG_OF_PERICENTER":87.4753,"MEAN_ANOMALY":272.6652,"EPHEMERIS_TYPE":0,"CLASSIFICATION_TYPE":"U","NORAD_CAT_ID":48799,"ELEMENT_SET_NO":999,"REV_AT_EPOCH":20291,"BSTAR":-1.0069e-5,"MEAN_MOTION_DOT":9.0e-8,"MEAN_MOTION_DDOT":0},{"OBJECT_NAME":"ONEWEB-0215","OBJECT_ID":"2021-045AK","EPOCH":"2025-07-27T20:55:52.378464","MEAN_MOTION":13.15547201,"ECCENTRICITY":0.0002317,"INCLINATION":87.9083,"RA_OF_ASC_NODE":323.8305,"ARG_OF_PERICENTER":82.2577,"MEAN_ANOMALY":277.8817,"EPHEMERIS_TYPE":0,"CLASSIFICATION_TYPE":"U","NORAD_CAT_ID":48800,"ELEMENT_SET_NO":999,"REV_AT_EPOCH":20277,"BSTAR":-0.00032342,"MEAN_MOTION_DOT":-1.09e-6,"MEAN_MOTION_DDOT":0},{"OBJECT_NAME":"ONEWEB-0216","OBJECT_ID":"2021-045AL","EPOCH":"2025-07-27T08:22:53.969664","MEAN_MOTION":13.15547972,"ECCENTRICITY":0.0002122,"INCLINATION":87.9076,"RA_OF_ASC_NODE":323.9801,"ARG_OF_PERICENTER":101.2731,"MEAN_ANOMALY":258.8638,"EPHEMERIS_TYPE":0,"CLASSIFICATION_TYPE":"U","NORAD_CAT_ID":48801,"ELEMENT_SET_NO":999,"REV_AT_EPOCH":20159,"BSTAR":-0.00019963,"MEAN_MOTION_DOT":-6.2e-7,"MEAN_MOTION_DDOT":0},{"OBJECT_NAME":"ONEWEB-0239","OBJECT_ID":"2021-045AM","EPOCH":"2025-07-27T08:29:45.125664","MEAN_MOTION":13.15547801,"ECCENTRICITY":0.0002164,"INCLINATION":87.9084,"RA_OF_ASC_NODE":323.9912,"ARG_OF_PERICENTER":76.4168,"MEAN_ANOMALY":283.7203,"EPHEMERIS_TYPE":0,"CLASSIFICATION_TYPE":"U","NORAD_CAT_ID":48802,"ELEMENT_SET_NO":999,"REV_AT_EPOCH":20163,"BSTAR":-0.00023266,"MEAN_MOTION_DOT":-7.5e-7,"MEAN_MOTION_DDOT":0},{"OBJECT_NAME":"ONEWEB-0249","OBJECT_ID":"2021-060A","EPOCH":"2025-07-27T13:04:54.622560","MEAN_MOTION":13.16595725,"ECCENTRICITY":0.0001946,"INCLINATION":87.9053,"RA_OF_ASC_NODE":293.4907,"ARG_OF_PERICENTER":97.1009,"MEAN_ANOMALY":263.0343,"EPHEMERIS_TYPE":0,"CLASSIFICATION_TYPE":"U","NORAD_CAT_ID":48967,"ELEMENT_SET_NO":999,"REV_AT_EPOCH":19689,"BSTAR":0.00020133,"MEAN_MOTION_DOT":9.0e-7,"MEAN_MOTION_DDOT":0},{"OBJECT_NAME":"ONEWEB-0250","OBJECT_ID":"2021-060B","EPOCH":"2025-07-27T11:47:44.654784","MEAN_MOTION":13.25810151,"ECCENTRICITY":0.0001564,"INCLINATION":87.9052,"RA_OF_ASC_NODE":292.3212,"ARG_OF_PERICENTER":70.3446,"MEAN_ANOMALY":289.7859,"EPHEMERIS_TYPE":0,"CLASSIFICATION_TYPE":"U","NORAD_CAT_ID":48968,"ELEMENT_SET_NO":999,"REV_AT_EPOCH":19719,"BSTAR":0.00016807,"MEAN_MOTION_DOT":8.7e-7,"MEAN_MOTION_DDOT":0},{"OBJECT_NAME":"ONEWEB-0252","OBJECT_ID":"2021-060D","EPOCH":"2025-07-27T19:18:49.130784","MEAN_MOTION":13.16594827,"ECCENTRICITY":0.0002266,"INCLINATION":87.9052,"RA_OF_ASC_NODE":293.4321,"ARG_OF_PERICENTER":105.5137,"MEAN_ANOMALY":254.6244,"EPHEMERIS_TYPE":0,"CLASSIFICATION_TYPE":"U","NORAD_CAT_ID":48970,"ELEMENT_SET_NO":999,"REV_AT_EPOCH":19826,"BSTAR":-9.1755e-5,"MEAN_MOTION_DOT":-2.2e-7,"MEAN_MOTION_DDOT":0},{"OBJECT_NAME":"ONEWEB-0253","OBJECT_ID":"2021-060E","EPOCH":"2025-07-27T11:45:07.066368","MEAN_MOTION":13.1659559,"ECCENTRICITY":0.0002157,"INCLINATION":87.9051,"RA_OF_ASC_NODE":293.4987,"ARG_OF_PERICENTER":94.5677,"MEAN_ANOMALY":265.5701,"EPHEMERIS_TYPE":0,"CLASSIFICATION_TYPE":"U","NORAD_CAT_ID":48971,"ELEMENT_SET_NO":999,"REV_AT_EPOCH":19686,"BSTAR":-0.0001091,"MEAN_MOTION_DOT":-2.9e-7,"MEAN_MOTION_DDOT":0},{"OBJECT_NAME":"ONEWEB-0254","OBJECT_ID":"2021-060F","EPOCH":"2025-07-27T11:58:48.765792","MEAN_MOTION":13.16594694,"ECCENTRICITY":0.0002109,"INCLINATION":87.9054,"RA_OF_ASC_NODE":293.4823,"ARG_OF_PERICENTER":86.8722,"MEAN_ANOMALY":273.265,"EPHEMERIS_TYPE":0,"CLASSIFICATION_TYPE":"U","NORAD_CAT_ID":48972,"ELEMENT_SET_NO":999,"REV_AT_EPOCH":19686,"BSTAR":-0.00019421,"MEAN_MOTION_DOT":-6.1e-7,"MEAN_MOTION_DDOT":0}]
