ONEWEB-0212             
1 48791U 21045AA  25208.82540396  .00000017  00000+0  11132-4 0  9994
2 48791  87.9075 323.8597 0001868  98.2220 261.9122 13.15549342202925
ONEWEB-0227             
1 48792U 21045AB  25208.82459520  .00000030  00000+0  44877-4 0  9990
2 48792  87.9078 323.8795 0001976  94.9989 265.1367 13.15547814202866
ONEWEB-0226             
1 48793U 21045AC  25208.36192066 -.00000046  00000+0 -15594-3 0  9991
2 48793  87.9082 323.9753 0002298  96.6781 263.4611 13.15548895201642
ONEWEB-0224             
1 48794U 21045AD  25208.85788298  .00000099  00000+0  23004-3 0  9995
2 48794  87.9081 323.9144 0001671  68.0254 292.1054 13.15547109202758
ONEWEB-0233             
1 48795U 21045AE  25208.86248612  .00000033  00000+0  54370-4 0  9997
2 48795  87.9087 323.9215 0002094  89.6491 270.4879 13.15549717202768
ONEWEB-0190             
1 48796U 21045AF  25208.62178204  .00000179  00000+0  44035-3 0  9998
2 48796  87.9088 323.9340 0002569  86.1626 273.9798 13.15547566201697
ONEWEB-0236             
1 48797U 21045AG  25208.56314410  .00000009  00000+0 -94888-5 0  9999
2 48797  87.9093 323.9547 0001767  97.4687 262.6645 13.15547458202691
ONEWEB-0248             
1 48798U 21045AH  25208.57583056 -.00000063  00000+0 -20215-3 0  9997
2 48798  87.9082 323.9072 0002086  79.7151 280.4214 13.15550244201738
ONEWEB-0225             
1 48799U 21045AJ  25208.82616580  .00000009  00000+0 -10069-4 0  9991
2 48799  87.9086 323.8889 0002405  87.4753 272.6652 13.15546264202914
ONEWEB-0215             
1 48800U 21045AK  25208.87213401 -.00000109  00000+0 -32342-3 0  9993
2 48800  87.9083 323.8305 0002317  82.2577 277.8817 13.15547201202772
ONEWEB-0216             
1 48801U 21045AL  25208.34923576 -.00000062  00000+0 -19963-3 0  9999
2 48801  87.9076 323.9801 0002122 101.2731 258.8638 13.15547972201599
ONEWEB-0239             
1 48802U 21045AM  25208.35399451 -.00000075  00000+0 -23266-3 0  9995
2 48802  87.9084 323.9912 0002164  76.4168 283.7203 13.15547801201636
ONEWEB-0249             
1 48967U 21060A   25208.54507665  .00000090  00000+0  20133-3 0  9998
2 48967  87.9053 293.4907 0001946  97.1009 263.0343 13.16595725196896
ONEWEB-0250             
1 48968U 21060B   25208.49148906  .00000087  00000+0  16807-3 0  9991
2 48968  87.9052 292.3212 0001564  70.3446 289.7859 13.25810151197191
ONEWEB-0252             
1 48970U 21060D   25208.80473531 -.00000022  00000+0 -91755-4 0  9991
2 48970  87.9052 293.4321 0002266 105.5137 254.6244 13.16594827198262
ONEWEB-0253             
1 48971U 21060E   25208.48966512 -.00000029  00000+0 -10910-3 0  9992
2 48971  87.9051 293.4987 0002157  94.5677 265.5701 13.16595590196866
ONEWEB-0254             
1 48972U 21060F   25208.49917553 -.00000061  00000+0 -19421-3 0  9997
2 48972  87.9054 293.4823 0002109  86.8722 273.2650 13.16594694196864
